{
    "week": 294,
    "satellites": [
        {
            "Name": "BEIDOU-2 IGSO-1 (C06)",
            "Line1": "1 36828U 10036A   24333.33030031 -.00000011  00000+0  00000+0 0  9996",
            "Line2": "2 36828  54.2576 168.0776 0042692 205.6375 279.8716  1.00283674 52428",
            "SatelliteNumber": "36828",
            "Classification": "U",
            "LaunchYear": "10",
            "LaunchNumber": "036",
            "PieceOfLaunch": "A",
            "EpochYear": "24",
            "EpochDay": 333.33030031,
            "FirstDerivativeMeanMotion": -1.1e-07,
            "SecondDerivativeMeanMotion": "00000+0",
            "BSTAR": "00000+0",
            "SetNumber": "999",
            "Inclination": 54.2576,
            "RAAN": 168.0776,
            "Eccentricity": 0.0042692,
            "ArgumentOfPerigee": 205.6375,
            "MeanAnomaly": 279.8716,
            "MeanMotion": 1.00283674,
            "RevolutionNumber": "5242"
        },
        {
            "Name": "BEIDOU-2 G4 (C04)",
            "Line1": "1 37210U 10057A   24333.76129703 -.00000085  00000+0  00000+0 0  9998",
            "Line2": "2 37210   2.2447  70.1334 0009381 180.9267 251.1688  1.00272890 51619",
            "SatelliteNumber": "37210",
            "Classification": "U",
            "LaunchYear": "10",
            "LaunchNumber": "057",
            "PieceOfLaunch": "A",
            "EpochYear": "24",
            "EpochDay": 333.76129703,
            "FirstDerivativeMeanMotion": -8.5e-07,
            "SecondDerivativeMeanMotion": "00000+0",
            "BSTAR": "00000+0",
            "SetNumber": "999",
            "Inclination": 2.2447,
            "RAAN": 70.1334,
            "Eccentricity": 0.0009381,
            "ArgumentOfPerigee": 180.9267,
            "MeanAnomaly": 251.1688,
            "MeanMotion": 1.0027289,
            "RevolutionNumber": "5161"
        },
        {
            "Name": "BEIDOU-2 IGSO-2 (C07)",
            "Line1": "1 37256U 10068A   24332.64146269 -.00000214  00000+0  00000+0 0  9996",
            "Line2": "2 37256  48.5809 278.8242 0037775 218.5901 265.3877  1.00250823 51114",
            "SatelliteNumber": "37256",
            "Classification": "U",
            "LaunchYear": "10",
            "LaunchNumber": "068",
            "PieceOfLaunch": "A",
            "EpochYear": "24",
            "EpochDay": 332.64146269,
            "FirstDerivativeMeanMotion": -2.14e-06,
            "SecondDerivativeMeanMotion": "00000+0",
            "BSTAR": "00000+0",
            "SetNumber": "999",
            "Inclination": 48.5809,
            "RAAN": 278.8242,
            "Eccentricity": 0.0037775,
            "ArgumentOfPerigee": 218.5901,
            "MeanAnomaly": 265.3877,
            "MeanMotion": 1.00250823,
            "RevolutionNumber": "5111"
        },
        {
            "Name": "BEIDOU-2 IGSO-3 (C08)",
            "Line1": "1 37384U 11013A   24333.62966281 -.00000198  00000+0  00000+0 0  9993",
            "Line2": "2 37384  61.5938  45.5324 0031730 181.6099 174.9289  1.00267879 49991",
            "SatelliteNumber": "37384",
            "Classification": "U",
            "LaunchYear": "11",
            "LaunchNumber": "013",
            "PieceOfLaunch": "A",
            "EpochYear": "24",
            "EpochDay": 333.62966281,
            "FirstDerivativeMeanMotion": -1.98e-06,
            "SecondDerivativeMeanMotion": "00000+0",
            "BSTAR": "00000+0",
            "SetNumber": "999",
            "Inclination": 61.5938,
            "RAAN": 45.5324,
            "Eccentricity": 0.003173,
            "ArgumentOfPerigee": 181.6099,
            "MeanAnomaly": 174.9289,
            "MeanMotion": 1.00267879,
            "RevolutionNumber": "4999"
        },
        {
            "Name": "BEIDOU-2 IGSO-4 (C09)",
            "Line1": "1 37763U 11038A   24333.01854991  .00000072  00000+0  00000+0 0  9998",
            "Line2": "2 37763  54.5630 170.7296 0129741 228.4931 131.2387  1.00273963 48970",
            "SatelliteNumber": "37763",
            "Classification": "U",
            "LaunchYear": "11",
            "LaunchNumber": "038",
            "PieceOfLaunch": "A",
            "EpochYear": "24",
            "EpochDay": 333.01854991,
            "FirstDerivativeMeanMotion": 7.2e-07,
            "SecondDerivativeMeanMotion": "00000+0",
            "BSTAR": "00000+0",
            "SetNumber": "999",
            "Inclination": 54.563,
            "RAAN": 170.7296,
            "Eccentricity": 0.0129741,
            "ArgumentOfPerigee": 228.4931,
            "MeanAnomaly": 131.2387,
            "MeanMotion": 1.00273963,
            "RevolutionNumber": "4897"
        },
        {
            "Name": "BEIDOU-2 IGSO-5 (C10)",
            "Line1": "1 37948U 11073A   24333.31950926 -.00000193  00000+0  00000+0 0  9995",
            "Line2": "2 37948  48.7149 278.5125 0100748 222.2398 135.4345  1.00256003 47456",
            "SatelliteNumber": "37948",
            "Classification": "U",
            "LaunchYear": "11",
            "LaunchNumber": "073",
            "PieceOfLaunch": "A",
            "EpochYear": "24",
            "EpochDay": 333.31950926,
            "FirstDerivativeMeanMotion": -1.93e-06,
            "SecondDerivativeMeanMotion": "00000+0",
            "BSTAR": "00000+0",
            "SetNumber": "999",
            "Inclination": 48.7149,
            "RAAN": 278.5125,
            "Eccentricity": 0.0100748,
            "ArgumentOfPerigee": 222.2398,
            "MeanAnomaly": 135.4345,
            "MeanMotion": 1.00256003,
            "RevolutionNumber": "4745"
        },
        {
            "Name": "BEIDOU-2 G5 (C05)",
            "Line1": "1 38091U 12008A   24333.52680625  .00000084  00000+0  00000+0 0  9991",
            "Line2": "2 38091   2.1645  70.9343 0011284 224.0929  21.2749  1.00269766 46698",
            "SatelliteNumber": "38091",
            "Classification": "U",
            "LaunchYear": "12",
            "LaunchNumber": "008",
            "PieceOfLaunch": "A",
            "EpochYear": "24",
            "EpochDay": 333.52680625,
            "FirstDerivativeMeanMotion": 8.4e-07,
            "SecondDerivativeMeanMotion": "00000+0",
            "BSTAR": "00000+0",
            "SetNumber": "999",
            "Inclination": 2.1645,
            "RAAN": 70.9343,
            "Eccentricity": 0.0011284,
            "ArgumentOfPerigee": 224.0929,
            "MeanAnomaly": 21.2749,
            "MeanMotion": 1.00269766,
            "RevolutionNumber": "4669"
        },
        {
            "Name": "BEIDOU-2 M3 (C11)",
            "Line1": "1 38250U 12018A   24333.24007784 -.00000072  00000+0  00000+0 0  9995",
            "Line2": "2 38250  56.2230 323.8725 0025440 267.4327  92.2845  1.86233718 85400",
            "SatelliteNumber": "38250",
            "Classification": "U",
            "LaunchYear": "12",
            "LaunchNumber": "018",
            "PieceOfLaunch": "A",
            "EpochYear": "24",
            "EpochDay": 333.24007784,
            "FirstDerivativeMeanMotion": -7.2e-07,
            "SecondDerivativeMeanMotion": "00000+0",
            "BSTAR": "00000+0",
            "SetNumber": "999",
            "Inclination": 56.223,
            "RAAN": 323.8725,
            "Eccentricity": 0.002544,
            "ArgumentOfPerigee": 267.4327,
            "MeanAnomaly": 92.2845,
            "MeanMotion": 1.86233718,
            "RevolutionNumber": "8540"
        },
        {
            "Name": "BEIDOU-2 M4 (C12)",
            "Line1": "1 38251U 12018B   24333.17058899 -.00000073  00000+0  00000+0 0  9992",
            "Line2": "2 38251  56.1283 323.1339 0016350 269.9002  89.9202  1.86232161 85400",
            "SatelliteNumber": "38251",
            "Classification": "U",
            "LaunchYear": "12",
            "LaunchNumber": "018",
            "PieceOfLaunch": "B",
            "EpochYear": "24",
            "EpochDay": 333.17058899,
            "FirstDerivativeMeanMotion": -7.3e-07,
            "SecondDerivativeMeanMotion": "00000+0",
            "BSTAR": "00000+0",
            "SetNumber": "999",
            "Inclination": 56.1283,
            "RAAN": 323.1339,
            "Eccentricity": 0.001635,
            "ArgumentOfPerigee": 269.9002,
            "MeanAnomaly": 89.9202,
            "MeanMotion": 1.86232161,
            "RevolutionNumber": "8540"
        },
        {
            "Name": "BEIDOU-2 M6 (C14)",
            "Line1": "1 38775U 12050B   24332.88024750 -.00000040  00000+0  00000+0 0  9999",
            "Line2": "2 38775  56.0495  81.6990 0010738 340.6101  19.3297  1.86231022 82767",
            "SatelliteNumber": "38775",
            "Classification": "U",
            "LaunchYear": "12",
            "LaunchNumber": "050",
            "PieceOfLaunch": "B",
            "EpochYear": "24",
            "EpochDay": 332.8802475,
            "FirstDerivativeMeanMotion": -4e-07,
            "SecondDerivativeMeanMotion": "00000+0",
            "BSTAR": "00000+0",
            "SetNumber": "999",
            "Inclination": 56.0495,
            "RAAN": 81.699,
            "Eccentricity": 0.0010738,
            "ArgumentOfPerigee": 340.6101,
            "MeanAnomaly": 19.3297,
            "MeanMotion": 1.86231022,
            "RevolutionNumber": "8276"
        }
    ]
}